{
  "norad_id": 67145,
  "name": "KUIPER-00204",
  "history": [
    {
      "epoch": "2026-03-28T21:53:59.020224Z",
      "apogee_km": 488.7666937025906,
      "perigee_km": 486.01087165342324,
      "latitude_deg": 2.4467177354828413e-05,
      "longitude_deg": -175.91122430474763,
      "height_km": 487.2740158675285,
      "semi_major_axis_km": 6865.525782678007,
      "eccentricity": 0.0002007,
      "inclination_deg": 51.8832,
      "raan_deg": 338.9108,
      "arg_perigee_deg": 50.6823,
      "mean_anomaly_deg": 309.4337,
      "mean_motion_rev_day": 15.26131858
    }
  ]
}