{"fetched_at":"2026-03-29T16:36:15Z","count":15609,"tles":[{"name":"KUIPER-00204","line1":"1 67145U 25301N   26087.91248866  .00018003  00000+0  69921-3 0  9992","line2":"2 67145  51.8832 338.9108 0002007  50.6823 309.4337 15.26131858 16711","category":"Other"}]}